Train,Police Station Name,District,Address,Phone,Email,Pincode,Telephone number
anantapur1town,ANANTAPUR 1 TOWN,Anantapur,"Anantapur, Andhra Pradesh, India",9874563210,anantapur1town@gmail.com,521787,08862-98480
anantapur2town,ANANTAPUR 2 TOWN,Anantapur,"Anantapur, Andhra Pradesh, India",9874563210,anantapur2town@gmail.com,521787,08862-98480
anantapur3town,ANANTAPUR 3 TOWN,Anantapur,"Anantapur, Andhra Pradesh, India",9874563210,anantapur3town@gmail.com,521787,08862-98480
agali,Agali,Anantapur,"Anantapur, Andhra Pradesh, India",9874563210,agali@gmail.com,521787,08862-98480
amadagur,Amadagur,Anantapur,"Anantapur, Andhra Pradesh, India",9874563210,amadagur@gmail.com,521787,08862-98480
amarapuram,Amarapuram,Anantapur,"Anantapur, Andhra Pradesh, India",9874563210,amarapuram@gmail.com,521787,08862-98480
anantapurrural,Anantapur Rural,Anantapur,"Anantapur, Andhra Pradesh, India",9874563210,anantapurrural@gmail.com,521787,08862-98480
atmakuranantapur,Atmakur,Anantapur,"Anantapur, Andhra Pradesh, India",9874563210,atmakur@gmail.com,521787,08862-98480
bksamudram,B K Samudram,Anantapur,"Anantapur, Andhra Pradesh, India",9874563210,bksamudram@gmail.com,521787,08862-98480
bathalapalli,Bathalapalli,Anantapur,"Anantapur, Andhra Pradesh, India",9874563210,bathalapalli@gmail.com,521787,08862-98480
beluguppa,Beluguppa,Anantapur,"Anantapur, Andhra Pradesh, India",9874563210,beluguppa@gmail.com,521787,08862-98480
bommanahal,Bommanahal,Anantapur,"Anantapur, Andhra Pradesh, India",9874563210,bommanahal@gmail.com,521787,08862-98480
bramhasamudram,Bramhasamudram,Anantapur,"Anantapur, Andhra Pradesh, India",9874563210,bramhasamudram@gmail.com,521787,08862-98480
bukkapatnam,Bukkapatnam,Anantapur,"Anantapur, Andhra Pradesh, India",9874563210,bukkapatnam@gmail.com,521787,08862-98480
chenekothapalli,Chenekotha palli,Anantapur,"Anantapur, Andhra Pradesh, India",9874563210,chenekothapalli@gmail.com,521787,08862-98480
chilamathur,Chilamathur,Anantapur,"Anantapur, Andhra Pradesh, India",9874563210,chilamathur@gmail.com,521787,08862-98480
dhirehal,DHirehal,Anantapur,"Anantapur, Andhra Pradesh, India",9874563210,d.hirehal@gmail.com,521787,08862-98480
dharmavaramrural,Dharmavaram Rural,Anantapur,"Anantapur, Andhra Pradesh, India",9874563210,dharmavaramrural@gmail.com,521787,08862-98480
dharmavaramurban,Dharmavaram Urban,Anantapur,"Anantapur, Andhra Pradesh, India",9874563210,dharmavaramurban@gmail.com,521787,08862-98480
gandlapenta,Gandlapenta,Anantapur,"Anantapur, Andhra Pradesh, India",9874563210,gandlapenta@gmail.com,521787,08862-98480
garladinne,Garladinne,Anantapur,"Anantapur, Andhra Pradesh, India",9874563210,garladinne@gmail.com,521787,08862-98480
gooty,Gooty,Anantapur,"Anantapur, Andhra Pradesh, India",9874563210,gooty@gmail.com,521787,08862-98480
gorantla,Gorantla,Anantapur,"Anantapur, Andhra Pradesh, India",9874563210,gorantla@gmail.com,521787,08862-98480
gudibanda,Gudibanda,Anantapur,"Anantapur, Andhra Pradesh, India",9874563210,gudibanda@gmail.com,521787,08862-98480
gummagatta,Gummagatta,Anantapur,"Anantapur, Andhra Pradesh, India",9874563210,gummagatta@gmail.com,521787,08862-98480
addateegala,Addateegala,East Godavari,"East Godavari, Andhra Pradesh, India",9874563210,addateegala@gmail.com,521787,08862-98480
ainavilli,Ainavilli,East Godavari,"East Godavari, Andhra Pradesh, India",9874563210,ainavilli@gmail.com,521787,08862-98480
alamuru,Alamuru,East Godavari,"East Godavari, Andhra Pradesh, India",9874563210,alamuru@gmail.com,521787,08862-98480
allavaram,Allavaram,East Godavari,"East Godavari, Andhra Pradesh, India",9874563210,allavaram@gmail.com,521787,08862-98480
amalapuramtown ,Amalapuram Town,East Godavari,"East Godavari, Andhra Pradesh, India",9874563210,amalapuramtn@gmail.com,521787,08862-98480
amalapuramtaluka,Amalapuram Taluka,East Godavari,"East Godavari, Andhra Pradesh, India",9874563210,amalapuramtq@gmail.com,521787,08862-98480
ambajipeta,Ambajipeta,East Godavari,"East Godavari, Andhra Pradesh, India",9874563210,ambajipeta@gmail.com,521787,08862-98480
anaparthi,Anaparthi,East Godavari,"East Godavari, Andhra Pradesh, India",9874563210,anaparthi@gmail.com,521787,08862-98480
annavaram,Annavaram,East Godavari,"East Godavari, Andhra Pradesh, India",9874563210,annavaram@gmail.com,521787,08862-98480
atreyapuram,Atreyapuram,East Godavari,"East Godavari, Andhra Pradesh, India",9874563210,atreyapuram@gmail.com,521787,08862-98480
bhadrachalamrural,Bhadrachalam Rural,East Godavari,"East Godavari, Andhra Pradesh, India",9874563210,bhadrachalamrural@gmail.com,521787,08862-98480
biccavole,Biccavole,East Godavari,"East Godavari, Andhra Pradesh, India",9874563210,biccavole@gmail.com,521787,08862-98480
chinthuru,Chinthuru,East Godavari,"East Godavari, Andhra Pradesh, India",9874563210,chinthuru@gmail.com,521787,08862-98480
coringa,Coringa,East Godavari,"East Godavari, Andhra Pradesh, India",9874563210,coringa@gmail.com,521787,08862-98480
devipatnam,Devipatnam,East Godavari,"East Godavari, Andhra Pradesh, India",9874563210,devipatnam@gmail.com,521787,08862-98480
donkarai,Donkarai,East Godavari,"East Godavari, Andhra Pradesh, India",9874563210,donkarai@gmail.com,521787,08862-98480
draksharama,Draksharama,East Godavari,"East Godavari, Andhra Pradesh, India",9874563210,draksharama@gmail.com,521787,08862-98480
dutcharthi,Dutcharthi,East Godavari,"East Godavari, Andhra Pradesh, India",9874563210,dutcharthi@gmail.com,521787,08862-98480
gandepalli,Gandepalli,East Godavari,"East Godavari, Andhra Pradesh, India",9874563210,gandepalli@gmail.com,521787,08862-98480
gangavaram,Gangavaram,East Godavari,"East Godavari, Andhra Pradesh, India",9874563210,gangavaram@gmail.com,521787,08862-98480
gollapalem,Gollapalem,East Godavari,"East Godavari, Andhra Pradesh, India",9874563210,gollapalem@gmail.com,521787,08862-98480
gollaprolu,Gollaprolu,East Godavari,"East Godavari, Andhra Pradesh, India",9874563210,gollaprolu@gmail.com,521787,08862-98480
ipolavaram,I Polavaram,East Godavari,"East Godavari, Andhra Pradesh, India",9874563210,ipolavaram@gmail.com,521787,08862-98480
kakinada1town,Kakinada 1 Town,East Godavari,"East Godavari, Andhra Pradesh, India",9874563210,itownlandokakinada@gmail.com,521787,08862-98480
kakinada2town,Kakinda 2 Town,East Godavari,"East Godavari, Andhra Pradesh, India",9874563210,iitownlandokakinada@gmail.com,521787,08862-98480
bkothakota,B Kothakota,Chittoor,"Chittoor, Andhra Pradesh, India",9874563210,bkothakota@gmail.com,521787,08862-98480
baireddipalli,Baireddipalli,Chittoor,"Chittoor, Andhra Pradesh, India",9874563210,baireddipalli@gmail.com,521787,08862-98480
bangarupalem,Bangarupalem,Chittoor,"Chittoor, Andhra Pradesh, India",9874563210,bangarupalem@gmail.com,521787,08862-98480
bhakarapet,Bhakarapet,Chittoor,"Chittoor, Andhra Pradesh, India",9874563210,bhakarapet@gmail.com,521787,08862-98480
chittooritown,Chittoor I Town,Chittoor,"Chittoor, Andhra Pradesh, India",9874563210,chittooritown@gmail.com,521787,08862-98480
chittooriitown,Chittoor II Town,Chittoor,"Chittoor, Andhra Pradesh, India",9874563210,chittooriitown@gmail.com,521787,08862-98480
chittoortaluk,Chittoor Taluk,Chittoor,"Chittoor, Andhra Pradesh, India",9874563210,chittoortaluk@gmail.com,521787,08862-98480
chowdepalli,Chowdepalli,Chittoor,"Chittoor, Andhra Pradesh, India",9874563210,chowdepalli@gmail.com,521787,08862-98480
gdnellore,G D Nellore,Chittoor,"Chittoor, Andhra Pradesh, India",9874563210,gdnellore@gmail.com,521787,08862-98480
gangavaram,Gangavaram,Chittoor,"Chittoor, Andhra Pradesh, India",9874563210,gangavaram@gmail.com,521787,08862-98480
gudipala,Gudipala,Chittoor,"Chittoor, Andhra Pradesh, India",9874563210,gudipala@gmail.com,521787,08862-98480
gudupalli,Gudupalli,Chittoor,"Chittoor, Andhra Pradesh, India",9874563210,gudupalli@gmail.com,521787,08862-98480
gurramkonda,Gurramkonda,Chittoor,"Chittoor, Andhra Pradesh, India",9874563210,gurramkonda@gmail.com,521787,08862-98480
irala,Irala,Chittoor,"Chittoor, Andhra Pradesh, India",9874563210,irala@gmail.com,521787,08862-98480
kvbpuram,K V B Puram,Chittoor,"Chittoor, Andhra Pradesh, India",9874563210,kvbpuram@gmail.com,521787,08862-98480
kvpalli,K V Palli,Chittoor,"Chittoor, Andhra Pradesh, India",9874563210,kvpalli@gmail.com,521787,08862-98480
kalakada,Kalakada,Chittoor,"Chittoor, Andhra Pradesh, India",9874563210,kalakada@gmail.com,521787,08862-98480
kalikiri,Kalikiri,Chittoor,"Chittoor, Andhra Pradesh, India",9874563210,kalikiri@gmail.com,521787,08862-98480
kallur,Kallur,Chittoor,"Chittoor, Andhra Pradesh, India",9874563210,kallur@gmail.com,521787,08862-98480
kanipakam,Kanipakam,Chittoor,"Chittoor, Andhra Pradesh, India",9874563210,kanipakam@gmail.com,521787,08862-98480
karvetinagaram,Karvetinagaram,Chittoor,"Chittoor, Andhra Pradesh, India",9874563210,karvetinagaram@gmail.com,521787,08862-98480
kuppam,Kuppam,Chittoor,"Chittoor, Andhra Pradesh, India",9874563210,kuppam@gmail.com,521787,08862-98480
madanapalliitown,Madanapalli I town,Chittoor,"Chittoor, Andhra Pradesh, India",9874563210,madanapalliitown@gmail.com,521787,08862-98480
madanapallitaluk,Madanapalli Taluk,Chittoor,"Chittoor, Andhra Pradesh, India",9874563210,madanapallitaluk@gmail.com,521787,08862-98480
molakalacheruvu,Molakalacheruvu,Chittoor,"Chittoor, Andhra Pradesh, India",9874563210,molakalacheruvu@gmail.com,521787,08862-98480
adavuladeevi,Adavuladeevi,Guntur,"Guntur , Andhra Pradesh, India",9874563210,adavuladeevi@gmail.com,521787,08862-98480
amaravathi,Amaravathi,Guntur,"Guntur , Andhra Pradesh, India",9874563210,amaravathi@gmail.com,521787,08862-98480
amarthaluru,Amarthaluru,Guntur,"Guntur , Andhra Pradesh, India",9874563210,amarthaluru@gmail.com,521787,08862-98480
atchempet,Atchempet,Guntur,"Guntur , Andhra Pradesh, India",9874563210,atchempet@gmail.com,521787,08862-98480
bandlamotu,Bandlamotu,Guntur,"Guntur , Andhra Pradesh, India",9874563210,bandlamotu@gmail.com,521787,08862-98480
bapatlataluk,Bapatla Taluk,Guntur,"Guntur , Andhra Pradesh, India",9874563210,bapatlataluk@gmail.com,521787,08862-98480
bapatlatown,Bapatla Town,Guntur,"Guntur , Andhra Pradesh, India",9874563210,bapatlatown@gmail.com,521787,08862-98480
bellamkonda,Bellamkonda,Guntur,"Guntur , Andhra Pradesh, India",9874563210,bellamkonda@gmail.com,521787,08862-98480
bhattiprolu,Bhattiprolu,Guntur,"Guntur , Andhra Pradesh, India",9874563210,bhattiprolu@gmail.com,521787,08862-98480
chandole,Chandole,Guntur,"Guntur , Andhra Pradesh, India",9874563210,chandole@gmail.com,521787,08862-98480
cherukupalli,Cherukupalli,Guntur,"Guntur , Andhra Pradesh, India",9874563210,cherukupalli@gmail.com,521787,08862-98480
chilakaluripetrural,Chilakaluripet Rural,Guntur,"Guntur , Andhra Pradesh, India",9874563210,chilakaluripetrural@gmail.com,521787,08862-98480
chilakaluripettown,Chilakaluripet Town,Guntur,"Guntur , Andhra Pradesh, India",9874563210,chilakaluripettown@gmail.com,521787,08862-98480
dachepalli,Dachepalli,Guntur,"Guntur , Andhra Pradesh, India",9874563210,dachepalli@gmail.com,521787,08862-98480
duggirala,Duggirala,Guntur,"Guntur , Andhra Pradesh, India",9874563210,duggirala@gmail.com,521787,08862-98480
durgi,Durgi,Guntur,"Guntur , Andhra Pradesh, India",9874563210,durgi@gmail.com,521787,08862-98480
edlapadu,Edlapadu,Guntur,"Guntur , Andhra Pradesh, India",9874563210,edlapadu@gmail.com,521787,08862-98480
gurazalaurban,Gurazala Urban,Guntur,"Guntur , Andhra Pradesh, India",9874563210,gurazalaurban@gmail.com,521787,08862-98480
inavolu,Inavolu,Guntur,"Guntur , Andhra Pradesh, India",9874563210,inavolu@gmail.com,521787,08862-98480
ipuru,Ipuru,Guntur,"Guntur , Andhra Pradesh, India",9874563210,ipuru@gmail.com,521787,08862-98480
kakumanu,Kakumanu,Guntur,"Guntur , Andhra Pradesh, India",9874563210,kakumanu@gmail.com,521787,08862-98480
karempudi,Karempudi,Guntur,"Guntur , Andhra Pradesh, India",9874563210,karempudi@gmail.com,521787,08862-98480
karlapalem,Karlapalem,Guntur,"Guntur , Andhra Pradesh, India",9874563210,karlapalem@gmail.com,521787,08862-98480
kollipra,Kollipra,Guntur,"Guntur , Andhra Pradesh, India",9874563210,kollipra@gmail.com,521787,08862-98480
kolluru,Kolluru,Guntur,"Guntur , Andhra Pradesh, India",9874563210,kolluru@gmail.com,521787,08862-98480
arundelpet,Arundelpet,Guntur,"Guntur , Andhra Pradesh, India",9874563210,arundelpet@gmail.com,521787,08862-98480
chebrolu,Chebrolu,Guntur,"Guntur , Andhra Pradesh, India",9874563210,chebrolu@gmail.com,521787,08862-98480
kothapet,Kothapet,Guntur,"Guntur , Andhra Pradesh, India",9874563210,kothapet@gmail.com,521787,08862-98480
lalapet,Lalapet,Guntur,"Guntur , Andhra Pradesh, India",9874563210,lalapet@gmail.com,521787,08862-98480
mangalagirirural,Mangalagiri Rural,Guntur,"Guntur , Andhra Pradesh, India",9874563210,mangalagirirural@gmail.com,521787,08862-98480
mangalagiritown,Mangalagiri Town,Guntur,"Guntur , Andhra Pradesh, India",9874563210,mangalagiritown@gmail.com,521787,08862-98480
medikonduru,Medikonduru,Guntur,"Guntur , Andhra Pradesh, India",9874563210,medikonduru@gmail.com,521787,08862-98480
nagarampalem,Nagarampalem,Guntur,"Guntur , Andhra Pradesh, India",9874563210,nagarampalem@gmail.com,521787,08862-98480
nallapadu,Nallapadu,Guntur,"Guntur , Andhra Pradesh, India",9874563210,nallapadu@gmail.com,521787,08862-98480
oldguntur,Old Guntur,Guntur,"Guntur , Andhra Pradesh, India",9874563210,oldguntur@gmail.com,521787,08862-98480
pattabhipuram,Pattabhipuram,Guntur,"Guntur , Andhra Pradesh, India",9874563210,pattabhipuram@gmail.com,521787,08862-98480
pedakakani,Pedakakani,Guntur,"Guntur , Andhra Pradesh, India",9874563210,pedakakani@gmail.com,521787,08862-98480
prathipadu,Prathipadu,Guntur,"Guntur , Andhra Pradesh, India",9874563210,prathipadu@gmail.com,521787,08862-98480
tadepalli,Tadepalli,Guntur,"Guntur , Andhra Pradesh, India",9874563210,tadepalli@gmail.com,521787,08862-98480
tadikonda,Tadikonda,Guntur,"Guntur , Andhra Pradesh, India",9874563210,tadikonda@gmail.com,521787,08862-98480
vatticherukuru,Vatticherukuru,Guntur,"Guntur , Andhra Pradesh, India",9874563210,vatticherukuru@gmail.com,521787,08862-98480
akonduru,A Konduru,Krishna,"Krishna, Andhra Pradesh, India",9874563210,akonduru@gmail.com,521787,08862-98480
agiripalli,Agiripalli,Krishna,"Krishna, Andhra Pradesh, India",9874563210,agiripalli@gmail.com,521787,08862-98480
avanigadda,Avanigadda,Krishna,"Krishna, Andhra Pradesh, India",9874563210,avanigadda@gmail.com,521787,08862-98480
bandartaluk,Bandar Taluk,Krishna,"Krishna, Andhra Pradesh, India",9874563210,bandartaluk@gmail.com,521787,08862-98480
bantumilli,Bantumilli,Krishna,"Krishna, Andhra Pradesh, India",9874563210,bantumilli@gmail.com,521787,08862-98480
challapalli,Challapalli,Krishna,"Krishna, Andhra Pradesh, India",9874563210,challapalli@gmail.com,521787,08862-98480
chandarlapadu,Chandarlapadu,Krishna,"Krishna, Andhra Pradesh, India",9874563210,chandarlapadu@gmail.com,521787,08862-98480
chatrai,Chatrai,Krishna,"Krishna, Andhra Pradesh, India",9874563210,chatrai@gmail.com,521787,08862-98480
chilakalapudi,Chilakalapudi,Krishna,"Krishna, Andhra Pradesh, India",9874563210,chilakalapudi@gmail.com,521787,08862-98480
chilakallu,Chilakallu,Krishna,"Krishna, Andhra Pradesh, India",9874563210,chilakallu@gmail.com,521787,08862-98480
gkonduru,G Konduru,Krishna,"Krishna, Andhra Pradesh, India",9874563210,gkonduru@gmail.com,521787,08862-98480
gampalagudem,Gampalagudem,Krishna,"Krishna, Andhra Pradesh, India",9874563210,gampalagudem@gmail.com,521787,08862-98480
ghantasala,Ghantasala,Krishna,"Krishna, Andhra Pradesh, India",9874563210,ghantasala@gmail.com,521787,08862-98480
gudivadaitown,Gudivada I Town,Krishna,"Krishna, Andhra Pradesh, India",9874563210,gudivadaitown@gmail.com,521787,08862-98480
gudivadaiitown,Gudivada II Town,Krishna,"Krishna, Andhra Pradesh, India",9874563210,gudivadaiitown@gmail.com,521787,08862-98480
gudivadatq,Gudivada TQ,Krishna,"Krishna, Andhra Pradesh, India",9874563210,gudivadatq@gmail.com,521787,08862-98480
gudlavalleru,Gudlavalleru,Krishna,"Krishna, Andhra Pradesh, India",9874563210,gudlavalleru@gmail.com,521787,08862-98480
guduru,Guduru,Krishna,"Krishna, Andhra Pradesh, India",9874563210,guduru@gmail.com,521787,08862-98480
hanumanjunction,Hanuman Junction,Krishna,"Krishna, Andhra Pradesh, India",9874563210,hanumanjunction@gmail.com,521787,08862-98480
inuguduru,Inuguduru,Krishna,"Krishna, Andhra Pradesh, India",9874563210,inuguduru@gmail.com,521787,08862-98480
jaggaiahpet,Jaggaiahpet,Krishna,"Krishna, Andhra Pradesh, India",9874563210,jaggaiahpet@gmail.com,521787,08862-98480
kaikalururural,Kaikaluru Rural,Krishna,"Krishna, Andhra Pradesh, India",9874563210,kaikalururural@gmail.com,521787,08862-98480
kaikalurutown,Kaikaluru Town,Krishna,"Krishna, Andhra Pradesh, India",9874563210,kaikalurutown@gmail.com,521787,08862-98480
kalidindi,Kalidindi,Krishna,"Krishna, Andhra Pradesh, India",9874563210,kalidindi@gmail.com,521787,08862-98480
kanchikacherla,Kanchikacherla,Krishna,"Krishna, Andhra Pradesh, India",9874563210,kanchikacherla@gmail.com,521787,08862-98480
adoniitown,Adoni I Town,Kurnool,"Kurnool, Andhra Pradesh, India",9874563210,adoniitown@gmail.com,521787,08862-98480
adoniiitown,Adoni II Town,Kurnool,"Kurnool, Andhra Pradesh, India",9874563210,adoniiitown@gmail.com,521787,08862-98480
adoniiiitown,Adoni III Town,Kurnool,"Kurnool, Andhra Pradesh, India",9874563210,adoniiiitown@gmail.com,521787,08862-98480
adonitaluka,Adoni Taluka,Kurnool,"Kurnool, Andhra Pradesh, India",9874563210,adonitaluka@gmail.com,521787,08862-98480
allagaddarural,Allagadda Rural,Kurnool,"Kurnool, Andhra Pradesh, India",9874563210,allagaddarural@gmail.com,521787,08862-98480
allagaddatown,Allagadda Town,Kurnool,"Kurnool, Andhra Pradesh, India",9874563210,allagaddatown@gmail.com,521787,08862-98480
alur,Alur,Kurnool,"Kurnool, Andhra Pradesh, India",9874563210,alur@gmail.com,521787,08862-98480
aspari,Aspari,Kurnool,"Kurnool, Andhra Pradesh, India",9874563210,aspari@gmail.com,521787,08862-98480
atmakurkurnool,Atmakur,Kurnool,"Kurnool, Andhra Pradesh, India",9874563210,atmakur@gmail.com,521787,08862-98480
banaganapalli,Banaganapalli,Kurnool,"Kurnool, Andhra Pradesh, India",9874563210,banaganapalli@gmail.com,521787,08862-98480
bandiatmakur,Bandi Atmakur,Kurnool,"Kurnool, Andhra Pradesh, India",9874563210,bandiatmakur@gmail.com,521787,08862-98480
bethamcherla,Bethamcherla,Kurnool,"Kurnool, Andhra Pradesh, India",9874563210,bethamcherla@gmail.com,521787,08862-98480
brahmanakotkur,Brahmanakotkur,Kurnool,"Kurnool, Andhra Pradesh, India",9874563210,brahmanakotkur@gmail.com,521787,08862-98480
cbelagal,C Belagal,Kurnool,"Kurnool, Andhra Pradesh, India",9874563210,cbelagal@gmail.com,521787,08862-98480
chagalamarri,Chagalamarri,Kurnool,"Kurnool, Andhra Pradesh, India",9874563210,chagalamarri@gmail.com,521787,08862-98480
chippagiri,Chippagiri,Kurnool,"Kurnool, Andhra Pradesh, India",9874563210,chippagiri@gmail.com,521787,08862-98480
devanakonda,Devanakonda,Kurnool,"Kurnool, Andhra Pradesh, India",9874563210,devanakonda@gmail.com,521787,08862-98480
dhonerural,Dhone Rural,Kurnool,"Kurnool, Andhra Pradesh, India",9874563210,dhonerural@gmail.com,521787,08862-98480
dhonetown,Dhone Town,Kurnool,"Kurnool, Andhra Pradesh, India",9874563210,dhonetown@gmail.com,521787,08862-98480
dornipadu,Dornipadu,Kurnool,"Kurnool, Andhra Pradesh, India",9874563210,dornipadu@gmail.com,521787,08862-98480
gadivemula,Gadivemula,Kurnool,"Kurnool, Andhra Pradesh, India",9874563210,gadivemula@gmail.com,521787,08862-98480
gonegandla,Gonegandla,Kurnool,"Kurnool, Andhra Pradesh, India",9874563210,gonegandla@gmail.com,521787,08862-98480
gospadu,Gospadu,Kurnool,"Kurnool, Andhra Pradesh, India",9874563210,gospadu@gmail.com,521787,08862-98480
gudur,Gudur,Kurnool,"Kurnool, Andhra Pradesh, India",9874563210,gudur@gmail.com,521787,08862-98480
halaharvi,Halaharvi,Kurnool,"Kurnool, Andhra Pradesh, India",9874563210,halaharvi@gmail.com,521787,08862-98480
allur,Allur,Nellore,"Nellore, Andhra Pradesh, India",9874563210,allur@gmail.com,521787,08862-98480
ananthasagaram,Ananthasagaram,Nellore,"Nellore, Andhra Pradesh, India",9874563210,ananthasagaram@gmail.com,521787,08862-98480
anumasamudrampeta,Anumasamudrampeta,Nellore,"Nellore, Andhra Pradesh, India",9874563210,anumasamudrampeta@gmail.com,521787,08862-98480
atmakurnellore,Atmakur,Nellore,"Nellore, Andhra Pradesh, India",9874563210,atmakur@gmail.com,521787,08862-98480
balajinagar,Balaji nagar,Nellore,"Nellore, Andhra Pradesh, India",9874563210,balajinagar@gmail.com,521787,08862-98480
balayapalli,Balayapalli,Nellore,"Nellore, Andhra Pradesh, India",9874563210,balayapalli@gmail.com,521787,08862-98480
bitragunta,Bitragunta,Nellore,"Nellore, Andhra Pradesh, India",9874563210,bitragunta@gmail.com,521787,08862-98480
bogole,Bogole,Nellore,"Nellore, Andhra Pradesh, India",9874563210,bogole@gmail.com,521787,08862-98480
buchireddypalem,Buchireddypalem,Nellore,"Nellore, Andhra Pradesh, India",9874563210,buchireddypalem@gmail.com,521787,08862-98480
chejarla,Chejarla,Nellore,"Nellore, Andhra Pradesh, India",9874563210,chejarla@gmail.com,521787,08862-98480
chillakur,Chillakur,Nellore,"Nellore, Andhra Pradesh, India",9874563210,chillakur@gmail.com,521787,08862-98480
chittamur,Chittamur,Nellore,"Nellore, Andhra Pradesh, India",9874563210,chittamur@gmail.com,521787,08862-98480
dvsatram,D V Satram,Nellore,"Nellore, Andhra Pradesh, India",9874563210,dvsatram@gmail.com,521787,08862-98480
dagadarthi,Dagadarthi,Nellore,"Nellore, Andhra Pradesh, India",9874563210,dagadarthi@gmail.com,521787,08862-98480
dakkili,Dakkili,Nellore,"Nellore, Andhra Pradesh, India",9874563210,dakkili@gmail.com,521787,08862-98480
duttalur,Duttalur,Nellore,"Nellore, Andhra Pradesh, India",9874563210,duttalur@gmail.com,521787,08862-98480
gudur1town,Gudur 1 Town,Nellore,"Nellore, Andhra Pradesh, India",9874563210,guduritown@gmail.com,521787,08862-98480
gudur2town,Gudur 2 Town,Nellore,"Nellore, Andhra Pradesh, India",9874563210,guduriitown@gmail.com,521787,08862-98480
gudurrural,Gudur Rural,Nellore,"Nellore, Andhra Pradesh, India",9874563210,gudurrural@gmail.com,521787,08862-98480
gudursubdivision,Gudur Sub Division,Nellore,"Nellore, Andhra Pradesh, India",9874563210,gudursubdivision@gmail.com,521787,08862-98480
addanki,Addanki,Prakasam,"Prakasam, Andhra Pradesh, India",9874563210,addanki@gmail.com,521787,08862-98480
ardhaveedu,Ardhaveedu,Prakasam,"Prakasam, Andhra Pradesh, India",9874563210,ardhaveedu@gmail.com,521787,08862-98480
ballikurava,Ballikurava,Prakasam,"Prakasam, Andhra Pradesh, India",9874563210,ballikurava@gmail.com,521787,08862-98480
besthavaripeta,Besthavaripeta,Prakasam,"Prakasam, Andhra Pradesh, India",9874563210,besthavaripeta@gmail.com,521787,08862-98480
cspuram,C S Puram,Prakasam,"Prakasam, Andhra Pradesh, India",9874563210,cspuram@gmail.com,521787,08862-98480
chimakurthy,Chimakurthy,Prakasam,"Prakasam, Andhra Pradesh, India",9874563210,chimakurthy@gmail.com,521787,08862-98480
chinaganjam,Chinaganjam,Prakasam,"Prakasam, Andhra Pradesh, India",9874563210,chinaganjam@gmail.com,521787,08862-98480
chiralaitown,Chirala I Town,Prakasam,"Prakasam, Andhra Pradesh, India",9874563210,chiralaitown@gmail.com,521787,08862-98480
chiralaiitown,Chirala II Town,Prakasam,"Prakasam, Andhra Pradesh, India",9874563210,chiralaiitown@gmail.com,521787,08862-98480
cumbum,Cumbum,Prakasam,"Prakasam, Andhra Pradesh, India",9874563210,cumbum@gmail.com,521787,08862-98480
darsi,Darsi,Prakasam,"Prakasam, Andhra Pradesh, India",9874563210,darsi@gmail.com,521787,08862-98480
donakonda,Donakonda,Prakasam,"Prakasam, Andhra Pradesh, India",9874563210,donakonda@gmail.com,521787,08862-98480
dornala,Dornala,Prakasam,"Prakasam, Andhra Pradesh, India",9874563210,dornala@gmail.com,521787,08862-98480
epurupalem,Epurupalem,Prakasam,"Prakasam, Andhra Pradesh, India",9874563210,epurupalem@gmail.com,521787,08862-98480
giddalur,Giddalur,Prakasam,"Prakasam, Andhra Pradesh, India",9874563210,giddalur@gmail.com,521787,08862-98480
gudlur,Gudlur,Prakasam,"Prakasam, Andhra Pradesh, India",9874563210,gudlur@gmail.com,521787,08862-98480
hmpadu,H M Padu,Prakasam,"Prakasam, Andhra Pradesh, India",9874563210,hmpadu@gmail.com,521787,08862-98480
inkollu,Inkollu,Prakasam,"Prakasam, Andhra Pradesh, India",9874563210,inkollu@gmail.com,521787,08862-98480
jpangulur,J Pangulur,Prakasam,"Prakasam, Andhra Pradesh, India",9874563210,jpangulur@gmail.com,521787,08862-98480
jarugumalli,Jarugumalli,Prakasam,"Prakasam, Andhra Pradesh, India",9874563210,jarugumalli@gmail.com,521787,08862-98480
kandukurrural,Kandukur Rural,Prakasam,"Prakasam, Andhra Pradesh, India",9874563210,kandukurrural@gmail.com,521787,08862-98480
kandukurtown,Kandukur Town,Prakasam,"Prakasam, Andhra Pradesh, India",9874563210,kandukurtown@gmail.com,521787,08862-98480
kanigiri,Kanigiri,Prakasam,"Prakasam, Andhra Pradesh, India",9874563210,kanigiri@gmail.com,521787,08862-98480
karamchedu,Karamchedu,Prakasam,"Prakasam, Andhra Pradesh, India",9874563210,karamchedu@gmail.com,521787,08862-98480
komarole,Komarole,Prakasam,"Prakasam, Andhra Pradesh, India",9874563210,komarole@gmail.com,521787,08862-98480
bommuru,Bommuru,East Godavari,"East Godavari, Andhra Pradesh, India",9874563210,bommuru@gmail.com,521787,08862-98480
dowleswaram,Dowleswaram,East Godavari,"East Godavari, Andhra Pradesh, India",9874563210,dowleswaram@gmail.com,521787,08862-98480
gokavaram,Gokavaram,East Godavari,"East Godavari, Andhra Pradesh, India",9874563210,gokavaram@gmail.com,521787,08862-98480
kadiam,Kadiam,East Godavari,"East Godavari, Andhra Pradesh, India",9874563210,kadiam@gmail.com,521787,08862-98480
korukonda,Korukonda,East Godavari,"East Godavari, Andhra Pradesh, India",9874563210,korukonda@gmail.com,521787,08862-98480
prakashnagarar,Prakash Nagarar,East Godavari,"East Godavari, Andhra Pradesh, India",9874563210,prakashnagarar@gmail.com,521787,08862-98480
rajahmundry1townlando,Rajahmundry 1 Town ,East Godavari,"East Godavari, Andhra Pradesh, India",9874563210,rajahmundryitownlando@gmail.com,521787,08862-98480
rajahmundry2townlando,Rajahmundry 2 Town,East Godavari,"East Godavari, Andhra Pradesh, India",9874563210,rajahmundryiitownlando@gmail.com,521787,08862-98480
rajahmundry3townlando,Rajahmundry 3 Town,East Godavari,"East Godavari, Andhra Pradesh, India",9874563210,rajahmundryiiitownlando@gmail.com,521787,08862-98480
rajanagaram,Rajanagaram,East Godavari,"East Godavari, Andhra Pradesh, India",9874563210,rajanagaram@gmail.com,521787,08862-98480
seethanagaram,Seethanagaram,East Godavari,"East Godavari, Andhra Pradesh, India",9874563210,seethanagaram@gmail.com,521787,08862-98480
amadalavalasa,Amadalavalasa,Srikakulam,"Srikakulam, Andhra Pradesh, India",9874563210,amadalavalasa@gmail.com,521787,08862-98480
baruva,Baruva,Srikakulam,"Srikakulam, Andhra Pradesh, India",9874563210,baruva@gmail.com,521787,08862-98480
bathili,Bathili,Srikakulam,"Srikakulam, Andhra Pradesh, India",9874563210,bathili@gmail.com,521787,08862-98480
burja,Burja,Srikakulam,"Srikakulam, Andhra Pradesh, India",9874563210,burja@gmail.com,521787,08862-98480
donubai,Donubai,Srikakulam,"Srikakulam, Andhra Pradesh, India",9874563210,donubai@gmail.com,521787,08862-98480
etcherla,Etcherla,Srikakulam,"Srikakulam, Andhra Pradesh, India",9874563210,etcherla@gmail.com,521787,08862-98480
gsigadam,G Sigadam,Srikakulam,"Srikakulam, Andhra Pradesh, India",9874563210,gsigadam@gmail.com,521787,08862-98480
gara,Gara,Srikakulam,"Srikakulam, Andhra Pradesh, India",9874563210,gara@gmail.com,521787,08862-98480
hiramandalam,Hiramandalam,Srikakulam,"Srikakulam, Andhra Pradesh, India",9874563210,hiramandalam@gmail.com,521787,08862-98480
ichapuramrural,Ichapuram Rural,Srikakulam,"Srikakulam, Andhra Pradesh, India",9874563210,ichapuramrural@gmail.com,521787,08862-98480
ichapuramtown,Ichapuram Town,Srikakulam,"Srikakulam, Andhra Pradesh, India",9874563210,ichapuramtown@gmail.com,521787,08862-98480
jrpuram,J R Puram,Srikakulam,"Srikakulam, Andhra Pradesh, India",9874563210,jrpuram@gmail.com,521787,08862-98480
jalumuru,Jalumuru,Srikakulam,"Srikakulam, Andhra Pradesh, India",9874563210,jalumuru@gmail.com,521787,08862-98480
kanchili,Kanchili,Srikakulam,"Srikakulam, Andhra Pradesh, India",9874563210,kanchili@gmail.com,521787,08862-98480
kasibugga,Kasibugga,Srikakulam,"Srikakulam, Andhra Pradesh, India",9874563210,kasibugga@gmail.com,521787,08862-98480
kavti,Kavti,Srikakulam,"Srikakulam, Andhra Pradesh, India",9874563210,kavti@gmail.com,521787,08862-98480
kotabommali,Kotabommali,Srikakulam,"Srikakulam, Andhra Pradesh, India",9874563210,kotabommali@gmail.com,521787,08862-98480
kothuru,Kothuru,Srikakulam,"Srikakulam, Andhra Pradesh, India",9874563210,kothuru@gmail.com,521787,08862-98480
laveru,Laveru,Srikakulam,"Srikakulam, Andhra Pradesh, India",9874563210,laveru@gmail.com,521787,08862-98480
mandasa,Mandasa,Srikakulam,"Srikakulam, Andhra Pradesh, India",9874563210,mandasa@gmail.com,521787,08862-98480
meliaputti,Meliaputti,Srikakulam,"Srikakulam, Andhra Pradesh, India",9874563210,meliaputti@gmail.com,521787,08862-98480
nandigam,Nandigam,Srikakulam,"Srikakulam, Andhra Pradesh, India",9874563210,nandigam@gmail.com,521787,08862-98480
narasannapeta,Narasannapeta,Srikakulam,"Srikakulam, Andhra Pradesh, India",9874563210,narasannapeta@gmail.com,521787,08862-98480
naupada,Naupada,Srikakulam,"Srikakulam, Andhra Pradesh, India",9874563210,naupada@gmail.com,521787,08862-98480
palakonda,Palakonda,Srikakulam,"Srikakulam, Andhra Pradesh, India",9874563210,palakonda@gmail.com,521787,08862-98480
alipiri,Alipiri,Chittoor,"Chittoor, Andhra Pradesh, India",9874563210,alipiri@gmail.com,521787,08862-98480
bnkandriga,B N Kandriga,Chittoor,"Chittoor, Andhra Pradesh, India",9874563210,bnkandriga@gmail.com,521787,08862-98480
chandragiri,Chandragiri,Chittoor,"Chittoor, Andhra Pradesh, India",9874563210,chandragiri@gmail.com,521787,08862-98480
eastpolicestation,EAST POLICE STATION,Chittoor,"Chittoor, Andhra Pradesh, India",9874563210,eastpolicestation@gmail.com,521787,08862-98480
gajulamandya,Gajulamandya,Chittoor,"Chittoor, Andhra Pradesh, India",9874563210,gajulamandya@gmail.com,521787,08862-98480
muthyalareddypalli,Muthyala Reddy Palli,Chittoor,"Chittoor, Andhra Pradesh, India",9874563210,muthyalareddypalli@gmail.com,521787,08862-98480
rcpuram,R C Puram,Chittoor,"Chittoor, Andhra Pradesh, India",9874563210,rcpuram@gmail.com,521787,08862-98480
renigunta,Renigunta,Chittoor,"Chittoor, Andhra Pradesh, India",9874563210,renigunta@gmail.com,521787,08862-98480
svuniversitycampus,S V University Campus,Chittoor,"Chittoor, Andhra Pradesh, India",9874563210,svuniversitycampus@gmail.com,521787,08862-98480
srikalahastiiitown,Srikalahasti II Town,Chittoor,"Chittoor, Andhra Pradesh, India",9874563210,srikalahastiiitown@gmail.com,521787,08862-98480
srikalahastirural,Srikalahasti Rural,Chittoor,"Chittoor, Andhra Pradesh, India",9874563210,srikalahastirural@gmail.com,521787,08862-98480
thottambedu,Thottambedu,Chittoor,"Chittoor, Andhra Pradesh, India",9874563210,thottambedu@gmail.com,521787,08862-98480
tiruchanur,Tiruchanur,Chittoor,"Chittoor, Andhra Pradesh, India",9874563210,tiruchanur@gmail.com,521787,08862-98480
vadamalapet,Vadamalapet,Chittoor,"Chittoor, Andhra Pradesh, India",9874563210,vadamalapet@gmail.com,521787,08862-98480
westpolicestationtirupati,West Police Station Tirupati,Chittoor,"Chittoor, Andhra Pradesh, India",9874563210,westpolicestationtirupati@gmail.com,521787,08862-98480
yerpedu,Yerpedu,Chittoor,"Chittoor, Andhra Pradesh, India",9874563210,yerpedu@gmail.com,521787,08862-98480
arundalpet,Arundalpet,krishna,"krishna, Andhra Pradesh, India",9874563210,arundalpet@gmail.com,521787,08862-98480
bhavanipuram,Bhavanipuram,krishna,"krishna, Andhra Pradesh, India",9874563210,bhavanipuram@gmail.com,521787,08862-98480
gannavaram,Gannavaram,krishna,"krishna, Andhra Pradesh, India",9874563210,gannavaram@gmail.com,521787,08862-98480
gollapudi,Gollapudi,krishna,"krishna, Andhra Pradesh, India",9874563210,gollapudi@gmail.com,521787,08862-98480
governorpet,Governorpet,krishna,"krishna, Andhra Pradesh, India",9874563210,governorpet@gmail.com,521787,08862-98480
hbcolony,H B Colony,krishna,"krishna, Andhra Pradesh, India",9874563210,hbcolony@gmail.com,521787,08862-98480
hanumanpet,Hanumanpet,krishna,"krishna, Andhra Pradesh, India",9874563210,hanumanpet@gmail.com,521787,08862-98480
vijayawada1town,Vijayawada 1 Town,krishna,"krishna, Andhra Pradesh, India",9874563210,itown@gmail.com,521787,08862-98480
vijayawada2town,Vijayawada 2 Town,krishna,"krishna, Andhra Pradesh, India",9874563210,iitown@gmail.com,521787,08862-98480
ibrahimpatnam,Ibrahimpatnam,krishna,"krishna, Andhra Pradesh, India",9874563210,ibrahimpatnam@gmail.com,521787,08862-98480
kankipadu,Kankipadu,krishna,"krishna, Andhra Pradesh, India",9874563210,kankipadu@gmail.com,521787,08862-98480
krishnalanka,Krishnalanka,krishna,"krishna, Andhra Pradesh, India",9874563210,krishnalanka@gmail.com,521787,08862-98480
machavaram,Machavaram,krishna,"krishna, Andhra Pradesh, India",9874563210,machavaram@gmail.com,521787,08862-98480
nunna,Nunna,krishna,"krishna, Andhra Pradesh, India",9874563210,nunna@gmail.com,521787,08862-98480
outagency,Out Agency,krishna,"krishna, Andhra Pradesh, India",9874563210,outagency@gmail.com,521787,08862-98480
pamidimukkala,Pamidimukkala,krishna,"krishna, Andhra Pradesh, India",9874563210,pamidimukkala@gmail.com,521787,08862-98480
patamata,Patamata,krishna,"krishna, Andhra Pradesh, India",9874563210,patamata@gmail.com,521787,08862-98480
penamaluru,Penamaluru,krishna,"krishna, Andhra Pradesh, India",9874563210,penamaluru@gmail.com,521787,08862-98480
prasadampadusector,Prasadampadu Sector,krishna,"krishna, Andhra Pradesh, India",9874563210,prasadampadusector@gmail.com,521787,08862-98480
punnamihotel,Punnami Hotel,krishna,"krishna, Andhra Pradesh, India",9874563210,punnamihotel@gmail.com,521787,08862-98480
satyanarayanapuram,Satyanarayanapuram,krishna,"krishna, Andhra Pradesh, India",9874563210,satyanarayanapuram@gmail.com,521787,08862-98480
suryaraopet,Suryaraopet,krishna,"krishna, Andhra Pradesh, India",9874563210,suryaraopet@gmail.com,521787,08862-98480
thotlavalluru,Thotlavalluru,krishna,"krishna, Andhra Pradesh, India",9874563210,thotlavalluru@gmail.com,521787,08862-98480
unguturu,Unguturu,krishna,"krishna, Andhra Pradesh, India",9874563210,unguturu@gmail.com,521787,08862-98480
urmilanagar,Urmila Nagar,krishna,"krishna, Andhra Pradesh, India",9874563210,urmilanagar@gmail.com,521787,08862-98480
aannavaram,A Annavaram,Visakhapatnam,"Visakhapatnam , Andhra Pradesh, India",9874563210,aannavaram@gmail.com,521787,08862-98480
akoduru,A Koduru,Visakhapatnam,"Visakhapatnam, Andhra Pradesh, India",9874563210,akoduru@gmail.com,521787,08862-98480
anakapallirural,Anakapalli Rural,Visakhapatnam,"Visakhapatnam, Andhra Pradesh, India",9874563210,anakapallirural@gmail.com,521787,08862-98480
anakapallitown,Anakapalli Town,Visakhapatnam,"Visakhapatnam, Andhra Pradesh, India",9874563210,anakapallitown@gmail.com,521787,08862-98480
ananthagiri,Ananthagiri,Visakhapatnam,"Visakhapatnam, Andhra Pradesh, India",9874563210,ananthagiri@gmail.com,521787,08862-98480
arakuvalley,Araku valley,Visakhapatnam,"Visakhapatnam, Andhra Pradesh, India",9874563210,arakuvalley@gmail.com,521787,08862-98480
atchutapuram,Atchutapuram,Visakhapatnam,"Visakhapatnam, Andhra Pradesh, India",9874563210,atchutapuram@gmail.com,521787,08862-98480
butchayyapeta,Butchayyapeta,Visakhapatnam,"Visakhapatnam, Andhra Pradesh, India",9874563210,butchayyapeta@gmail.com,521787,08862-98480
cheedikada,Cheedikada,Visakhapatnam,"Visakhapatnam, Andhra Pradesh, India",9874563210,cheedikada@gmail.com,521787,08862-98480
chintapalli,Chintapalli,Visakhapatnam,"Visakhapatnam, Andhra Pradesh, India",9874563210,chintapalli@gmail.com,521787,08862-98480
chodavaram,Chodavaram,Visakhapatnam,"Visakhapatnam, Andhra Pradesh, India",9874563210,chodavaram@gmail.com,521787,08862-98480
devarapallivisakhapatnam,Devarapalli,Visakhapatnam,"Visakhapatnam, Andhra Pradesh, India",9874563210,devarapalli@gmail.com,521787,08862-98480
dumbriguda,Dumbriguda,Visakhapatnam,"Visakhapatnam, Andhra Pradesh, India",9874563210,dumbriguda@gmail.com,521787,08862-98480
gmadugula,G Madugula,Visakhapatnam,"Visakhapatnam, Andhra Pradesh, India",9874563210,gmadugula@gmail.com,521787,08862-98480
golugonda,Golugonda,Visakhapatnam,"Visakhapatnam, Andhra Pradesh, India",9874563210,golugonda@gmail.com,521787,08862-98480
gudemkothaveedhi,Gudem kotha veedhi,Visakhapatnam,"Visakhapatnam, Andhra Pradesh, India",9874563210,gudemkothaveedhi@gmail.com,521787,08862-98480
hukumpeta,Hukumpeta,Visakhapatnam,"Visakhapatnam, Andhra Pradesh, India",9874563210,hukumpeta@gmail.com,521787,08862-98480
kdpeta,K D Peta,Visakhapatnam,"Visakhapatnam, Andhra Pradesh, India",9874563210,kdpeta@gmail.com,521787,08862-98480
kkotapadu,K Kotapadu,Visakhapatnam,"Visakhapatnam, Andhra Pradesh, India",9874563210,kkotapadu@gmail.com,521787,08862-98480
kasimkota,Kasimkota,Visakhapatnam,"Visakhapatnam, Andhra Pradesh, India",9874563210,kasimkota@gmail.com,521787,08862-98480
kotauratla,Kotauratla,Visakhapatnam,"Visakhapatnam, Andhra Pradesh, India",9874563210,kotauratla@gmail.com,521787,08862-98480
kothakota,Kothakota,Visakhapatnam,"Visakhapatnam, Andhra Pradesh, India",9874563210,kothakota@gmail.com,521787,08862-98480
koyyuru,Koyyuru,Visakhapatnam,"Visakhapatnam, Andhra Pradesh, India",9874563210,koyyuru@gmail.com,521787,08862-98480
makavarapalem,Makavarapalem,Visakhapatnam,"Visakhapatnam, Andhra Pradesh, India",9874563210,makavarapalem@gmail.com,521787,08862-98480
mampa,Mampa,Visakhapatnam,"Visakhapatnam, Andhra Pradesh, India",9874563210,mampa@gmail.com,521787,08862-98480
ananda,Ananda,Visakhapatnam,"Visakhapatnam, Andhra Pradesh, India",9874563210,ananda@gmail.com,521787,08862-98480
bheemili,Bheemili,Visakhapatnam,"Visakhapatnam, Andhra Pradesh, India",9874563210,bheemili@gmail.com,521787,08862-98480
duvvada,Duvvada,Visakhapatnam,"Visakhapatnam, Andhra Pradesh, India",9874563210,duvvada@gmail.com,521787,08862-98480
gajuwaka,Gajuwaka,Visakhapatnam,"Visakhapatnam, Andhra Pradesh, India",9874563210,gajuwaka@gmail.com,521787,08862-98480
gopala,Gopala,Visakhapatnam,"Visakhapatnam, Andhra Pradesh, India",9874563210,gopala@gmail.com,521787,08862-98480
visakhapatnam1town,Visakapatnam 1 Town,Visakhapatnam,"Visakhapatnam, Andhra Pradesh, India",9874563210,itown@gmail.com,521787,08862-98480
visakhapatnam2town,Visakapatnam 2 Town,Visakhapatnam,"Visakhapatnam, Andhra Pradesh, India",9874563210,iitown@gmail.com,521787,08862-98480
visakhapatnam3town,Visakapatnam 3 Town,Visakhapatnam,"Visakhapatnam, Andhra Pradesh, India",9874563210,iiitown@gmail.com,521787,08862-98480
visakhapatnam4town,Visakapatnam 4 Town,Visakhapatnam,"Visakhapatnam, Andhra Pradesh, India",9874563210,ivtown@gmail.com,521787,08862-98480
kanchara,Kanchara,Visakhapatnam,"Visakhapatnam, Andhra Pradesh, India",9874563210,kanchara@gmail.com,521787,08862-98480
malkapuram,Malkapuram,Visakhapatnam,"Visakhapatnam, Andhra Pradesh, India",9874563210,malkapuram@gmail.com,521787,08862-98480
newport,Newport,Visakhapatnam,"Visakhapatnam, Andhra Pradesh, India",9874563210,newport@gmail.com,521787,08862-98480
pmpalem,PM Palem,Visakhapatnam,"Visakhapatnam, Andhra Pradesh, India",9874563210,pmpalem@gmail.com,521787,08862-98480
padmanabham,Padmanabham,Visakhapatnam,"Visakhapatnam, Andhra Pradesh, India",9874563210,padmanabham@gmail.com,521787,08862-98480
palem,Palem,Visakhapatnam,"Visakhapatnam, Andhra Pradesh, India",9874563210,palem@gmail.com,521787,08862-98480
paravada,Paravada,Visakhapatnam,"Visakhapatnam, Andhra Pradesh, India",9874563210,paravada@gmail.com,521787,08862-98480
patnam,Patnam,Visakhapatnam,"Visakhapatnam, Andhra Pradesh, India",9874563210,patnam@gmail.com,521787,08862-98480
pendurthi,Pendurthi,Visakhapatnam,"Visakhapatnam, Andhra Pradesh, India",9874563210,pendurthi@gmail.com,521787,08862-98480
puram,Puram,Visakhapatnam,"Visakhapatnam, Andhra Pradesh, India",9874563210,puram@gmail.com,521787,08862-98480
steelplant,Steel Plant,Visakhapatnam,"Visakhapatnam, Andhra Pradesh, India",9874563210,steelplant@gmail.com,521787,08862-98480
andra,Andra,Vizianagaram,"Vizianagaram, Andhra Pradesh, India",9874563210,andra@gmail.com,521787,08862-98480
badangi,Badangi,Vizianagaram,"Vizianagaram, Andhra Pradesh, India",9874563210,badangi@gmail.com,521787,08862-98480
balijipeta,Balijipeta,Vizianagaram,"Vizianagaram, Andhra Pradesh, India",9874563210,balijipeta@gmail.com,521787,08862-98480
bhogapuram,Bhogapuram,Vizianagaram,"Vizianagaram, Andhra Pradesh, India",9874563210,bhogapuram@gmail.com,521787,08862-98480
bobbili,Bobbili,Vizianagaram,"Vizianagaram, Andhra Pradesh, India",9874563210,bobbili@gmail.com,521787,08862-98480
bondapalli,Bondapalli,Vizianagaram,"Vizianagaram, Andhra Pradesh, India",9874563210,bondapalli@gmail.com,521787,08862-98480
budarayavalasa,Budarayavalasa,Vizianagaram,"Vizianagaram, Andhra Pradesh, India",9874563210,budarayavalasa@gmail.com,521787,08862-98480
burjavalasa,Burjavalasa,Vizianagaram,"Vizianagaram, Andhra Pradesh, India",9874563210,burjavalasa@gmail.com,521787,08862-98480
cheepurupalli,Cheepurupalli,Vizianagaram,"Vizianagaram, Andhra Pradesh, India",9874563210,cheepurupalli@gmail.com,521787,08862-98480
chinamerangi,Chinamerangi,Vizianagaram,"Vizianagaram, Andhra Pradesh, India",9874563210,chinamerangi@gmail.com,521787,08862-98480
denkada,Denkada,Vizianagaram,"Vizianagaram, Andhra Pradesh, India",9874563210,denkada@gmail.com,521787,08862-98480
elwinpeta,Elwinpeta,Vizianagaram,"Vizianagaram, Andhra Pradesh, India",9874563210,elwinpeta@gmail.com,521787,08862-98480
gajapathinagaram,Gajapathinagaram,Vizianagaram,"Vizianagaram, Andhra Pradesh, India",9874563210,gajapathinagaram@gmail.com,521787,08862-98480
gantyada,Gantyada,Vizianagaram,"Vizianagaram, Andhra Pradesh, India",9874563210,gantyada@gmail.com,521787,08862-98480
garividi,Garividi,Vizianagaram,"Vizianagaram, Andhra Pradesh, India",9874563210,garividi@gmail.com,521787,08862-98480
garugubilli,Garugubilli,Vizianagaram,"Vizianagaram, Andhra Pradesh, India",9874563210,garugubilli@gmail.com,521787,08862-98480
gurla,Gurla,Vizianagaram,"Vizianagaram, Andhra Pradesh, India",9874563210,gurla@gmail.com,521787,08862-98480
jami,Jami,Vizianagaram,"Vizianagaram, Andhra Pradesh, India",9874563210,jami@gmail.com,521787,08862-98480
jiyyammavalasa,Jiyyammavalasa,Vizianagaram,"Vizianagaram, Andhra Pradesh, India",9874563210,jiyyammavalasa@gmail.com,521787,08862-98480
komarada,Komarada,Vizianagaram,"Vizianagaram, Andhra Pradesh, India",9874563210,komarada@gmail.com,521787,08862-98480
kothavalasa,Kothavalasa,Vizianagaram,"Vizianagaram, Andhra Pradesh, India",9874563210,kothavalasa@gmail.com,521787,08862-98480
kurupam,Kurupam,Vizianagaram,"Vizianagaram, Andhra Pradesh, India",9874563210,kurupam@gmail.com,521787,08862-98480
lkota,L Kota,Vizianagaram,"Vizianagaram, Andhra Pradesh, India",9874563210,lkota@gmail.com,521787,08862-98480
makkuva,Makkuva,Vizianagaram,"Vizianagaram, Andhra Pradesh, India",9874563210,makkuva@gmail.com,521787,08862-98480
manapuram,Manapuram,Vizianagaram,"Vizianagaram, Andhra Pradesh, India",9874563210,manapuram@gmail.com,521787,08862-98480
achanta,Achanta,West Godavari,"West Godavari, Andhra Pradesh, India",9874563210,achanta@gmail.com,521787,08862-98480
akividu,Akividu,West Godavari,"West Godavari, Andhra Pradesh, India",9874563210,akividu@gmail.com,521787,08862-98480
ananthapalli,Ananthapalli,West Godavari,"West Godavari, Andhra Pradesh, India",9874563210,ananthapalli@gmail.com,521787,08862-98480
attili,Attili,West Godavari,"West Godavari, Andhra Pradesh, India",9874563210,attili@gmail.com,521787,08862-98480
bhimadole,Bhimadole,West Godavari,"West Godavari, Andhra Pradesh, India",9874563210,bhimadole@gmail.com,521787,08862-98480
bhimavaram1town,Bhimavaram 1 Town,West Godavari,"West Godavari, Andhra Pradesh, India",9874563210,bhimavaramitown@gmail.com,521787,08862-98480
bhimavaram2town,Bhimavaram 2 Town,West Godavari,"West Godavari, Andhra Pradesh, India",9874563210,bhimavaramiitown@gmail.com,521787,08862-98480
bhimavaramrural,Bhimavaram Rural,West Godavari,"West Godavari, Andhra Pradesh, India",9874563210,bhimavaramrural@gmail.com,521787,08862-98480
burgampahad,Burgampahad,West Godavari,"West Godavari, Andhra Pradesh, India",9874563210,burgampahad@gmail.com,521787,08862-98480
buttaigudem,Buttaigudem,West Godavari,"West Godavari, Andhra Pradesh, India",9874563210,buttaigudem@gmail.com,521787,08862-98480
chagallu,Chagallu,West Godavari,"West Godavari, Andhra Pradesh, India",9874563210,chagallu@gmail.com,521787,08862-98480
chebrole,Chebrole,West Godavari,"West Godavari, Andhra Pradesh, India",9874563210,chebrole@gmail.com,521787,08862-98480
chintalapudi,Chintalapudi,West Godavari,"West Godavari, Andhra Pradesh, India",9874563210,chintalapudi@gmail.com,521787,08862-98480
denduluru,Denduluru,West Godavari,"West Godavari, Andhra Pradesh, India",9874563210,denduluru@gmail.com,521787,08862-98480
devarapalliwestgodavari,Devarapalli,West Godavari,"West Godavari, Andhra Pradesh, India",9874563210,devarapalli@gmail.com,521787,08862-98480
dharmajigudem,Dharmajigudem,West Godavari,"West Godavari, Andhra Pradesh, India",9874563210,dharmajigudem@gmail.com,521787,08862-98480
dwarakathirumala,Dwarakathirumala,West Godavari,"West Godavari, Andhra Pradesh, India",9874563210,dwarakathirumala@gmail.com,521787,08862-98480
eluru1town,Eluru 1 Town,West Godavari,"West Godavari, Andhra Pradesh, India",9874563210,eluruitown@gmail.com,521787,08862-98480
eluru2town,Eluru 2 Town,West Godavari,"West Godavari, Andhra Pradesh, India",9874563210,eluruiitown@gmail.com,521787,08862-98480
eluru3town,Eluru 3 Town,West Godavari,"West Godavari, Andhra Pradesh, India",9874563210,eluruiiitown@gmail.com,521787,08862-98480
elururural,Eluru Rural,West Godavari,"West Godavari, Andhra Pradesh, India",9874563210,elururural@gmail.com,521787,08862-98480
1town,Eluru 1 Town,West Godavari,"West Godavari, Andhra Pradesh, India",9874563210,eluruitown@gmail.com,521787,08862-98480
2town,Eluru 2 Town,West Godavari,"West Godavari, Andhra Pradesh, India",9874563210,eluruiitown@gmail.com,521787,08862-98480
3town,Eluru 3 Town,West Godavari,"West Godavari, Andhra Pradesh, India",9874563210,eluruiiitown@gmail.com,521787,08862-98480
rural,Eluru Rural,West Godavari,"West Godavari, Andhra Pradesh, India",9874563210,elururural@gmail.com,521787,08862-98480
ganapavaram,Ganapavaram,West Godavari,"West Godavari, Andhra Pradesh, India",9874563210,ganapavaram@gmail.com,521787,08862-98480
gopalapuram,Gopalapuram,West Godavari,"West Godavari, Andhra Pradesh, India",9874563210,gopalapuram@gmail.com,521787,08862-98480
iragavaram,Iragavaram,West Godavari,"West Godavari, Andhra Pradesh, India",9874563210,iragavaram@gmail.com,521787,08862-98480
jrgudem,J R Gudem,West Godavari,"West Godavari, Andhra Pradesh, India",9874563210,jrgudem@gmail.com,521787,08862-98480